{"type":"FeatureCollection","features":[{"type":"Feature","properties":{"d":1,"name":"Louvre","parking":64,"cm":8,"ca":35,"cf":45,"clon":2.33922,"clat":48.86075},"geometry":{"type":"Polygon","coordinates":[[[2.320769,48.863037],[2.325149,48.869419],[2.328018,48.869949],[2.330302,48.868286],[2.350944,48.863407],[2.347351,48.857124],[2.344529,48.854012],[2.33725,48.858467],[2.320769,48.863037]]]}},{"type":"Feature","properties":{"d":2,"name":"Bourse","parking":52,"cm":161,"ca":-19,"cf":112,"clon":2.3465,"clat":48.86585},"geometry":{"type":"Polygon","coordinates":[[[2.339999,48.87196],[2.34789,48.870689],[2.35433,48.869308],[2.350979,48.863411],[2.330292,48.868294],[2.328072,48.869923],[2.339999,48.87196]]]}},{"type":"Feature","properties":{"d":3,"name":"Temple","parking":55,"cm":73,"ca":-18,"cf":41,"clon":2.35866,"clat":48.86261},"geometry":{"type":"Polygon","coordinates":[[[2.36236,48.867905],[2.364764,48.866436],[2.366694,48.86319],[2.368454,48.85582],[2.361631,48.857262],[2.356825,48.860111],[2.350172,48.862034],[2.354249,48.869286],[2.36236,48.867905]]]}},{"type":"Feature","properties":{"d":4,"name":"H\u00f4tel-de-Ville","parking":70,"cm":53,"ca":-36,"cf":-3,"clon":2.35772,"clat":48.85342},"geometry":{"type":"Polygon","coordinates":[[[2.36465,48.845989],[2.360899,48.84864],[2.344551,48.854027],[2.347329,48.857147],[2.350169,48.86203],[2.35678,48.860161],[2.36167,48.857258],[2.36836,48.855869],[2.3692,48.85281],[2.366299,48.846958],[2.36465,48.845989]]]}},{"type":"Feature","properties":{"d":5,"name":"Panth\u00e9on","parking":107,"cm":73,"ca":-43,"cf":-1,"clon":2.35198,"clat":48.8468},"geometry":{"type":"Polygon","coordinates":[[[2.351799,48.83675],[2.336462,48.839622],[2.3445,48.854038],[2.36098,48.84861],[2.366,48.844997],[2.36493,48.844379],[2.361839,48.84],[2.351799,48.83675]]]}},{"type":"Feature","properties":{"d":6,"name":"Luxembourg","parking":97,"cm":128,"ca":-53,"cf":7,"clon":2.33225,"clat":48.8494},"geometry":{"type":"Polygon","coordinates":[[[2.316469,48.846851],[2.32866,48.851952],[2.33386,48.85918],[2.337499,48.85849],[2.344465,48.853992],[2.33652,48.83963],[2.31999,48.8451],[2.316469,48.846851]]]}},{"type":"Feature","properties":{"d":7,"name":"Palais-Bourbon","parking":135,"cm":-20,"ca":24,"cf":-1,"clon":2.31287,"clat":48.85501},"geometry":{"type":"Polygon","coordinates":[[[2.309531,48.84581],[2.289877,48.858192],[2.294769,48.861862],[2.300219,48.863499],[2.31833,48.863838],[2.333844,48.85918],[2.328479,48.851826],[2.313651,48.845909],[2.311355,48.845215],[2.309531,48.84581]]]}},{"type":"Feature","properties":{"d":8,"name":"\u00c9lys\u00e9e","parking":153,"cm":-47,"ca":174,"cf":46,"clon":2.31083,"clat":48.87346},"geometry":{"type":"Polygon","coordinates":[[[2.30155,48.864601],[2.299869,48.865131],[2.298799,48.86869],[2.297299,48.871151],[2.295539,48.87326],[2.294029,48.873669],[2.294399,48.87429],[2.295409,48.874317],[2.298049,48.87846],[2.32721,48.88345],[2.326611,48.875404],[2.326976,48.873825],[2.325819,48.869534],[2.325152,48.869392],[2.320769,48.863098],[2.31828,48.863811],[2.30167,48.863522],[2.30155,48.864601]]]}},{"type":"Feature","properties":{"d":9,"name":"Op\u00e9ra","parking":82,"cm":162,"ca":-40,"cf":56,"clon":2.33804,"clat":48.87818},"geometry":{"type":"Polygon","coordinates":[[[2.339599,48.882011],[2.34952,48.883781],[2.34987,48.880692],[2.348139,48.87566],[2.34789,48.870689],[2.34004,48.87196],[2.32579,48.869572],[2.326979,48.873779],[2.32717,48.883419],[2.32948,48.884651],[2.339599,48.882011]]]}},{"type":"Feature","properties":{"d":10,"name":"Enclos-St-Laurent","parking":96,"cm":56,"ca":-44,"cf":-12,"clon":2.36006,"clat":48.87666},"geometry":{"type":"Polygon","coordinates":[[[2.368755,48.884079],[2.370213,48.882637],[2.370601,48.87756],[2.376952,48.872108],[2.363477,48.867226],[2.362404,48.867905],[2.347941,48.870728],[2.348155,48.875751],[2.349873,48.880692],[2.349486,48.883797],[2.359227,48.884472],[2.368755,48.884079]]]}},{"type":"Feature","properties":{"d":11,"name":"Popincourt","parking":129,"cm":-43,"ca":51,"cf":-15,"clon":2.37796,"clat":48.86063},"geometry":{"type":"Polygon","coordinates":[[[2.383175,48.867115],[2.387465,48.862823],[2.389654,48.858444],[2.394321,48.856548],[2.398398,48.85133],[2.399064,48.848103],[2.379999,48.850483],[2.369184,48.853081],[2.366737,48.86319],[2.36472,48.866409],[2.363477,48.867256],[2.376866,48.872108],[2.383175,48.867115]]]}},{"type":"Feature","properties":{"d":12,"name":"Reuilly","parking":167,"cm":-48,"ca":80,"cf":-7,"clon":2.44426,"clat":48.83506},"geometry":{"type":"Polygon","coordinates":[[[2.414499,48.846809],[2.41252,48.836529],[2.409609,48.83427],[2.41407,48.833698],[2.42214,48.83585],[2.419299,48.84206],[2.419989,48.84359],[2.42179,48.844547],[2.42445,48.841778],[2.438359,48.840588],[2.43922,48.844547],[2.44085,48.84444],[2.44076,48.845959],[2.4466,48.845901],[2.44634,48.84494],[2.455519,48.844097],[2.46334,48.842232],[2.46977,48.836529],[2.46909,48.834148],[2.465219,48.831497],[2.46428,48.827599],[2.466,48.827259],[2.464789,48.822968],[2.462559,48.819458],[2.45887,48.81715],[2.453889,48.816978],[2.44857,48.818157],[2.4375,48.818439],[2.43733,48.81963],[2.431919,48.822628],[2.42763,48.82415],[2.419729,48.8241],[2.41107,48.825001],[2.40669,48.826981],[2.403509,48.8293],[2.40111,48.829689],[2.38858,48.826469],[2.364539,48.84613],[2.366429,48.847031],[2.36918,48.85313],[2.38017,48.850368],[2.39596,48.848328],[2.414499,48.846809]]]}},{"type":"Feature","properties":{"d":13,"name":"Gobelins","parking":168,"cm":186,"ca":-65,"cf":0,"clon":2.36322,"clat":48.82921},"geometry":{"type":"Polygon","coordinates":[[[2.342039,48.838322],[2.35189,48.836731],[2.36193,48.840031],[2.36493,48.844379],[2.365959,48.844997],[2.38856,48.826481],[2.385269,48.825298],[2.37881,48.82148],[2.363339,48.816132],[2.356799,48.816441],[2.351669,48.817989],[2.346839,48.81641],[2.34405,48.816441],[2.34459,48.819382],[2.34242,48.821461],[2.34146,48.823658],[2.34111,48.831947],[2.342039,48.838322]]]}},{"type":"Feature","properties":{"d":14,"name":"Observatoire","parking":131,"cm":23,"ca":-35,"cf":-20,"clon":2.32336,"clat":48.8287},"geometry":{"type":"Polygon","coordinates":[[[2.301464,48.825428],[2.321032,48.841503],[2.321547,48.840996],[2.324594,48.843651],[2.342105,48.838284],[2.341117,48.831982],[2.341504,48.823254],[2.34249,48.821304],[2.344551,48.819355],[2.344078,48.816502],[2.33571,48.816811],[2.332878,48.818478],[2.301464,48.825428]]]}},{"type":"Feature","properties":{"d":15,"name":"Vaugirard","parking":218,"cm":-56,"ca":108,"cf":-8,"clon":2.29755,"clat":48.84261},"geometry":{"type":"Polygon","coordinates":[[[2.292365,48.827492],[2.277001,48.833763],[2.274255,48.830429],[2.275027,48.829807],[2.270564,48.828114],[2.267818,48.828171],[2.267303,48.831108],[2.27065,48.833591],[2.269191,48.835342],[2.266188,48.834724],[2.264127,48.835175],[2.278204,48.849014],[2.287644,48.855679],[2.289963,48.858276],[2.309274,48.845852],[2.311335,48.845287],[2.316483,48.846813],[2.324552,48.843594],[2.321633,48.841049],[2.320948,48.841618],[2.301464,48.825512],[2.292365,48.827492]]]}},{"type":"Feature","properties":{"d":16,"name":"Passy","parking":181,"cm":-40,"ca":79,"cf":8,"clon":2.25978,"clat":48.85963},"geometry":{"type":"Polygon","coordinates":[[[2.28007,48.878292],[2.294939,48.873859],[2.297387,48.871193],[2.299039,48.868427],[2.29991,48.865269],[2.301571,48.864574],[2.3018,48.863361],[2.29408,48.86166],[2.28893,48.85759],[2.28601,48.854321],[2.277429,48.847988],[2.26404,48.835121],[2.257859,48.835678],[2.253909,48.839298],[2.25477,48.845398],[2.2503,48.845509],[2.241719,48.848328],[2.2273,48.84856],[2.225929,48.85545],[2.23159,48.86652],[2.23932,48.870468],[2.2467,48.876339],[2.25511,48.874199],[2.258199,48.88052],[2.28007,48.878292]]]}},{"type":"Feature","properties":{"d":17,"name":"Batignolles-Monceau","parking":166,"cm":-60,"ca":90,"cf":-23,"clon":2.30692,"clat":48.88552},"geometry":{"type":"Polygon","coordinates":[[[2.27999,48.878361],[2.28325,48.882771],[2.29185,48.88842],[2.29768,48.889648],[2.306185,48.895111],[2.32188,48.900612],[2.33013,48.900799],[2.32562,48.887589],[2.32721,48.88345],[2.29807,48.878151],[2.29502,48.873909],[2.27999,48.878361]]]}},{"type":"Feature","properties":{"d":18,"name":"Butte-Montmartre","parking":163,"cm":-43,"ca":-1,"cf":-44,"clon":2.34775,"clat":48.89104},"geometry":{"type":"Polygon","coordinates":[[[2.370379,48.900719],[2.370379,48.896709],[2.37184,48.895359],[2.370289,48.894459],[2.36663,48.886604],[2.36472,48.884411],[2.34952,48.883678],[2.339739,48.88187],[2.32953,48.88443],[2.327192,48.883415],[2.325603,48.887619],[2.33021,48.900829],[2.353209,48.901279],[2.370379,48.900719]]]}},{"type":"Feature","properties":{"d":19,"name":"Buttes-Chaumont","parking":142,"cm":-30,"ca":13,"cf":-21,"clon":2.38178,"clat":48.88628},"geometry":{"type":"Polygon","coordinates":[[[2.408749,48.877857],[2.402309,48.875999],[2.395255,48.875259],[2.39021,48.875549],[2.376819,48.872219],[2.370379,48.87809],[2.37021,48.882771],[2.36892,48.883339],[2.368669,48.884132],[2.364742,48.884403],[2.366781,48.886688],[2.370289,48.894508],[2.37175,48.89547],[2.370279,48.896648],[2.370379,48.90078],[2.3769,48.900269],[2.38849,48.900661],[2.392009,48.899818],[2.39381,48.898239],[2.39725,48.88588],[2.401879,48.88176],[2.4066,48.880119],[2.408749,48.877857]]]}},{"type":"Feature","properties":{"d":20,"name":"M\u00e9nilmontant","parking":134,"cm":2,"ca":-23,"cf":-22,"clon":2.40112,"clat":48.86101},"geometry":{"type":"Polygon","coordinates":[[[2.4133,48.865269],[2.41414,48.859051],[2.41398,48.853809],[2.41527,48.851028],[2.41441,48.846802],[2.39904,48.848099],[2.3993,48.848789],[2.39835,48.851261],[2.39441,48.856522],[2.38965,48.858471],[2.38737,48.862961],[2.37682,48.872231],[2.39037,48.875542],[2.39529,48.87521],[2.40221,48.87595],[2.40858,48.87785],[2.41338,48.87109],[2.4133,48.865269]]]}}]}